start=new Date('2021-10-01T00:00:00.000Z').valueOf();
sats=[{"MEAN_MOTION_DDOT":"0.0000000000000","OBJECT_TYPE":"PAYLOAD","ELEMENT_SET_NO":"999","SITE":"AFETR","TLE_LINE2":"2 46586  53.0534 234.4463 0001583  62.9302 297.1848 15.06396337 55435","OBJECT_NAME":"STARLINK-1737","OBJECT_ID":"2020-070BG","MEAN_MOTION":"15.06396337","NORAD_CAT_ID":"46586","PERIAPSIS":"546.129","BSTAR":"0.00010175000000","COUNTRY_CODE":"US","ECCENTRICITY":"0.00015830","TLE_LINE1":"1 46586U 20070BG  21273.49523041  .00001234  00000-0  10175-3 0  9998","CENTER_NAME":"EARTH","DECAY_DATE":null,"MEAN_MOTION_DOT":"0.00001234","INCLINATION":"53.0534","MEAN_ANOMALY":"297.1848","REF_FRAME":"TEME","MEAN_ELEMENT_THEORY":"SGP4","EPHEMERIS_TYPE":"0","LAUNCH_DATE":"2020-10-06","FILE":"3136969","REV_AT_EPOCH":"5543","EPOCH":"2021-09-30T11:53:07.907424","APOAPSIS":"548.321","PERIOD":"95.592","RCS_SIZE":"LARGE","SEMIMAJOR_AXIS":"6925.360","ARG_OF_PERICENTER":"62.9302","TIME_SYSTEM":"UTC","RA_OF_ASC_NODE":"234.4463","GP_ID":"185861115","CLASSIFICATION_TYPE":"U"},{"GP_ID":"185861865","CLASSIFICATION_TYPE":"U","TIME_SYSTEM":"UTC","RA_OF_ASC_NODE":"235.4161","PERIOD":"95.592","EPOCH":"2021-09-30T06:39:58.145184","APOAPSIS":"548.377","SEMIMAJOR_AXIS":"6925.349","ARG_OF_PERICENTER":"64.8090","RCS_SIZE":"LARGE","REV_AT_EPOCH":"5540","LAUNCH_DATE":"2020-10-06","FILE":"3136969","MEAN_ANOMALY":"295.3073","REF_FRAME":"TEME","EPHEMERIS_TYPE":"0","MEAN_ELEMENT_THEORY":"SGP4","ECCENTRICITY":"0.00016790","COUNTRY_CODE":"US","BSTAR":"0.00010112000000","INCLINATION":"53.0523","MEAN_MOTION_DOT":"0.00001225","DECAY_DATE":null,"TLE_LINE1":"1 46588U 20070BJ  21273.27775631  .00001225  00000-0  10112-3 0  9991","CENTER_NAME":"EARTH","SITE":"AFETR","TLE_LINE2":"2 46588  53.0523 235.4161 0001679  64.8090 295.3073 15.06399772 55405","OBJECT_NAME":"STARLINK-1746","MEAN_MOTION_DDOT":"0.0000000000000","ELEMENT_SET_NO":"999","OBJECT_TYPE":"PAYLOAD","PERIAPSIS":"546.051","OBJECT_ID":"2020-070BJ","NORAD_CAT_ID":"46588","MEAN_MOTION":"15.06399772"},{"RA_OF_ASC_NODE":"234.2575","TIME_SYSTEM":"UTC","RCS_SIZE":"LARGE","SEMIMAJOR_AXIS":"6925.384","ARG_OF_PERICENTER":"55.9609","APOAPSIS":"547.996","EPOCH":"2021-09-30T12:51:31.146624","PERIOD":"95.593","GP_ID":"185860114","CLASSIFICATION_TYPE":"U","CENTER_NAME":"EARTH","TLE_LINE1":"1 46589U 20070BK  21273.53577716  .00000299  00000-0  38978-4 0  9996","DECAY_DATE":null,"MEAN_MOTION_DOT":"0.00000299","INCLINATION":"53.0544","BSTAR":"0.00003897800000","ECCENTRICITY":"0.00010780","COUNTRY_CODE":"US","MEAN_MOTION":"15.06388326","OBJECT_ID":"2020-070BK","NORAD_CAT_ID":"46589","PERIAPSIS":"546.503","MEAN_MOTION_DDOT":"0.0000000000000","ELEMENT_SET_NO":"999","OBJECT_TYPE":"PAYLOAD","TLE_LINE2":"2 46589  53.0544 234.2575 0001078  55.9609 304.1482 15.06388326 55434","SITE":"AFETR","OBJECT_NAME":"STARLINK-1749","LAUNCH_DATE":"2020-10-06","FILE":"3136969","REV_AT_EPOCH":"5543","MEAN_ELEMENT_THEORY":"SGP4","EPHEMERIS_TYPE":"0","MEAN_ANOMALY":"304.1482","REF_FRAME":"TEME"},{"RA_OF_ASC_NODE":"160.0160","TIME_SYSTEM":"UTC","ARG_OF_PERICENTER":"77.6862","SEMIMAJOR_AXIS":"6925.378","RCS_SIZE":"LARGE","PERIOD":"95.593","APOAPSIS":"548.720","EPOCH":"2021-09-30T09:05:16.751904","CLASSIFICATION_TYPE":"U","GP_ID":"185860364","MEAN_MOTION_DOT":"-0.00001250","INCLINATION":"53.0430","CENTER_NAME":"EARTH","TLE_LINE1":"1 46590U 20070BL  21273.37866611 -.00001250  00000-0 -65032-4 0  9996","DECAY_DATE":null,"COUNTRY_CODE":"US","ECCENTRICITY":"0.00021320","BSTAR":"-0.00006503200000","PERIAPSIS":"545.767","MEAN_MOTION":"15.06390310","NORAD_CAT_ID":"46590","OBJECT_ID":"2020-070BL","OBJECT_NAME":"STARLINK-1754","SITE":"AFETR","TLE_LINE2":"2 46590  53.0430 160.0160 0002132  77.6862 282.4365 15.06390310 56468","OBJECT_TYPE":"PAYLOAD","ELEMENT_SET_NO":"999","MEAN_MOTION_DDOT":"0.0000000000000","REV_AT_EPOCH":"5646","FILE":"3136969","LAUNCH_DATE":"2020-10-06","EPHEMERIS_TYPE":"0","MEAN_ELEMENT_THEORY":"SGP4","REF_FRAME":"TEME","MEAN_ANOMALY":"282.4365"},{"RCS_SIZE":"LARGE","SEMIMAJOR_AXIS":"6925.379","ARG_OF_PERICENTER":"63.3305","EPOCH":"2021-09-30T14:11:08.468736","APOAPSIS":"548.261","PERIOD":"95.593","RA_OF_ASC_NODE":"234.0223","TIME_SYSTEM":"UTC","CLASSIFICATION_TYPE":"U","GP_ID":"185867447","NORAD_CAT_ID":"46591","OBJECT_ID":"2020-070BM","MEAN_MOTION":"15.06390099","PERIAPSIS":"546.227","ELEMENT_SET_NO":"999","OBJECT_TYPE":"PAYLOAD","MEAN_MOTION_DDOT":"0.0000000000000","OBJECT_NAME":"STARLINK-1755","SITE":"AFETR","TLE_LINE2":"2 46591  53.0556 234.0223 0001468  63.3305 296.7834 15.06390099 55456","CENTER_NAME":"EARTH","TLE_LINE1":"1 46591U 20070BM  21273.59107024  .00000386  00000-0  44841-4 0  9999","DECAY_DATE":null,"MEAN_MOTION_DOT":"0.00000386","INCLINATION":"53.0556","BSTAR":"0.00004484100000","COUNTRY_CODE":"US","ECCENTRICITY":"0.00014680","MEAN_ELEMENT_THEORY":"SGP4","EPHEMERIS_TYPE":"0","REF_FRAME":"TEME","MEAN_ANOMALY":"296.7834","FILE":"3137166","LAUNCH_DATE":"2020-10-06","REV_AT_EPOCH":"5545"},{"APOAPSIS":"547.940","EPOCH":"2021-09-30T11:07:58.787904","PERIOD":"95.592","RCS_SIZE":"LARGE","SEMIMAJOR_AXIS":"6925.360","ARG_OF_PERICENTER":"84.8062","TIME_SYSTEM":"UTC","RA_OF_ASC_NODE":"324.5875","GP_ID":"185860372","CLASSIFICATION_TYPE":"U","MEAN_MOTION_DDOT":"0.0000000000000","ELEMENT_SET_NO":"999","OBJECT_TYPE":"PAYLOAD","SITE":"AFETR","TLE_LINE2":"2 46671  53.0552 324.5875 0001032  84.8062 275.3045 15.06396220 52708","OBJECT_NAME":"STARLINK-1715","OBJECT_ID":"2020-073B","NORAD_CAT_ID":"46671","MEAN_MOTION":"15.06396220","PERIAPSIS":"546.510","BSTAR":"0.00003225800000","COUNTRY_CODE":"US","ECCENTRICITY":"0.00010320","CENTER_NAME":"EARTH","TLE_LINE1":"1 46671U 20073B   21273.46387486  .00000199  00000-0  32258-4 0  9990","DECAY_DATE":null,"INCLINATION":"53.0552","MEAN_MOTION_DOT":"0.00000199","MEAN_ANOMALY":"275.3045","REF_FRAME":"TEME","MEAN_ELEMENT_THEORY":"SGP4","EPHEMERIS_TYPE":"0","LAUNCH_DATE":"2020-10-18","FILE":"3136969","REV_AT_EPOCH":"5270"},{"CLASSIFICATION_TYPE":"U","GP_ID":"185864728","TIME_SYSTEM":"UTC","RA_OF_ASC_NODE":"319.4052","APOAPSIS":"547.987","EPOCH":"2021-09-30T12:05:47.039424","PERIOD":"95.594","RCS_SIZE":"LARGE","ARG_OF_PERICENTER":"91.7610","SEMIMAJOR_AXIS":"6925.425","LAUNCH_DATE":"2020-10-18","FILE":"3137049","REV_AT_EPOCH":"5326","MEAN_ANOMALY":"268.3494","REF_FRAME":"TEME","MEAN_ELEMENT_THEORY":"SGP4","EPHEMERIS_TYPE":"0","BSTAR":"-0.00003301700000","ECCENTRICITY":"0.00010070","COUNTRY_CODE":"US","TLE_LINE1":"1 46672U 20073C   21273.50401666 -.00000773  00000-0 -33017-4 0  9997","DECAY_DATE":null,"CENTER_NAME":"EARTH","MEAN_MOTION_DOT":"-0.00000773","INCLINATION":"53.0544","MEAN_MOTION_DDOT":"0.0000000000000","OBJECT_TYPE":"PAYLOAD","ELEMENT_SET_NO":"999","TLE_LINE2":"2 46672  53.0544 319.4052 0001007  91.7610 268.3494 15.06375093 53265","SITE":"AFETR","OBJECT_NAME":"STARLINK-1716","OBJECT_ID":"2020-073C","MEAN_MOTION":"15.06375093","NORAD_CAT_ID":"46672","PERIAPSIS":"546.593"},{"GP_ID":"185861374","CLASSIFICATION_TYPE":"U","RA_OF_ASC_NODE":"334.2493","TIME_SYSTEM":"UTC","SEMIMAJOR_AXIS":"6925.367","ARG_OF_PERICENTER":"91.9741","RCS_SIZE":"LARGE","PERIOD":"95.593","APOAPSIS":"547.899","EPOCH":"2021-09-30T12:58:07.244832","REV_AT_EPOCH":"5257","FILE":"3136969","LAUNCH_DATE":"2020-10-18","EPHEMERIS_TYPE":"0","MEAN_ELEMENT_THEORY":"SGP4","REF_FRAME":"TEME","MEAN_ANOMALY":"268.1358","INCLINATION":"53.0556","MEAN_MOTION_DOT":"0.00000301","DECAY_DATE":null,"TLE_LINE1":"1 46673U 20073D   21273.54036163  .00000301  00000-0  39092-4 0  9992","CENTER_NAME":"EARTH","ECCENTRICITY":"0.00009630","COUNTRY_CODE":"US","BSTAR":"0.00003909200000","PERIAPSIS":"546.565","OBJECT_ID":"2020-073D","NORAD_CAT_ID":"46673","MEAN_MOTION":"15.06394064","OBJECT_NAME":"STARLINK-1717","SITE":"AFETR","TLE_LINE2":"2 46673  53.0556 334.2493 0000963  91.9741 268.1358 15.06394064 52579","OBJECT_TYPE":"PAYLOAD","ELEMENT_SET_NO":"999","MEAN_MOTION_DDOT":"0.0000000000000"},{"REV_AT_EPOCH":"5276","LAUNCH_DATE":"2020-10-18","FILE":"3136969","MEAN_ANOMALY":"275.6050","REF_FRAME":"TEME","EPHEMERIS_TYPE":"0","MEAN_ELEMENT_THEORY":"SGP4","ECCENTRICITY":"0.00014160","COUNTRY_CODE":"US","BSTAR":"0.00020124000000","INCLINATION":"53.0552","MEAN_MOTION_DOT":"0.00002718","TLE_LINE1":"1 46674U 20073E   21273.39708925  .00002718  00000-0  20124-3 0  9997","CENTER_NAME":"EARTH","DECAY_DATE":null,"SITE":"AFETR","TLE_LINE2":"2 46674  53.0552 319.8894 0001416  84.5101 275.6050 15.06405740 52769","OBJECT_NAME":"STARLINK-1718","MEAN_MOTION_DDOT":"0.0000000000000","ELEMENT_SET_NO":"999","OBJECT_TYPE":"PAYLOAD","PERIAPSIS":"546.215","OBJECT_ID":"2020-073E","NORAD_CAT_ID":"46674","MEAN_MOTION":"15.06405740","GP_ID":"185860622","CLASSIFICATION_TYPE":"U","TIME_SYSTEM":"UTC","RA_OF_ASC_NODE":"319.8894","PERIOD":"95.592","EPOCH":"2021-09-30T09:31:48.511200","APOAPSIS":"548.177","ARG_OF_PERICENTER":"84.5101","SEMIMAJOR_AXIS":"6925.331","RCS_SIZE":"LARGE"},{"RA_OF_ASC_NODE":"319.9080","TIME_SYSTEM":"UTC","RCS_SIZE":"LARGE","SEMIMAJOR_AXIS":"6925.365","ARG_OF_PERICENTER":"80.4737","APOAPSIS":"547.897","EPOCH":"2021-09-30T09:26:30.346656","PERIOD":"95.592","GP_ID":"185860872","CLASSIFICATION_TYPE":"U","TLE_LINE1":"1 46675U 20073F   21273.39340679  .00000266  00000-0  36729-4 0  9991","CENTER_NAME":"EARTH","DECAY_DATE":null,"INCLINATION":"53.0553","MEAN_MOTION_DOT":"0.00000266","BSTAR":"0.00003672900000","ECCENTRICITY":"0.00009620","COUNTRY_CODE":"US","OBJECT_ID":"2020-073F","NORAD_CAT_ID":"46675","MEAN_MOTION":"15.06394488","PERIAPSIS":"546.564","OBJECT_TYPE":"PAYLOAD","ELEMENT_SET_NO":"999","MEAN_MOTION_DDOT":"0.0000000000000","OBJECT_NAME":"STARLINK-1720","TLE_LINE2":"2 46675  53.0553 319.9080 0000962  80.4737 279.6361 15.06394488 52769","SITE":"AFETR","FILE":"3136969","LAUNCH_DATE":"2020-10-18","REV_AT_EPOCH":"5276","MEAN_ELEMENT_THEORY":"SGP4","EPHEMERIS_TYPE":"0","REF_FRAME":"TEME","MEAN_ANOMALY":"279.6361"}];
